Series Name,Country,Country Code,GDP_2016,GDP_2017,GDP_2018,GDP_2019,GDP_2020,,Series Name,Continent(Population),Country Code,2016 [YR2016],2017 [YR2017],2018 [YR2018],2019 [YR2019],2020 [YR2020],,Series Name,Continent,Country Code,GDP per capita (2016),GDP per capita (2017),GDP per capita (2018),GDP per capita (2019),GDP per capita (2020),,,,Series Name,Country Name(Population),Country Code,Population_2016 ,Population_2017,Population_2018,Population_2019,Population_2020
GDP per capita (current US$),Afghanistan,AFG,509,520,494,507,509,,"Population, total",Africa Eastern and Southern,AFE,609978946.00,626392880.00,643090131.00,660046272.00,677243299.00,,GDP per capita (current US$),Africa Eastern and Southern,AFE,1401,1536,1530,1481,1327,,,,"Population, total",Afghanistan,AFG,35383028.00,36296111.00,37171922.00,38041757.00,38928341.00
GDP per capita (current US$),Albania,ALB,4124,4531,5284,5356,5215,,"Population, total",Africa Western and Central,AFW,412551299.00,423769930.00,435229381.00,446911598.00,458803476.00,,GDP per capita (current US$),Africa Western and Central,AFW,1666,1607,1696,1772,1714,,,,"Population, total",Albania,ALB,2876101.00,2873457.00,2866376.00,2854191.00,2837743.00
GDP per capita (current US$),Algeria,DZA,3946,4110,4154,3976,3310,,"Population, total",Central Europe and the Baltics,CEB,102994278.00,102740078.00,102538451.00,102398537.00,102246330.00,,GDP per capita (current US$),Central Europe and the Baltics,CEB,12822,14238,16035,16294,16082,,,,"Population, total",Algeria,DZA,40551398.00,41389174.00,42228415.00,43053054.00,43851043.00
GDP per capita (current US$),American Samoa,ASM,12038,11004,11558,11535,0,,"Population, total",East Asia & Pacific,EAS,2298500738.00,2314112848.00,2328193462.00,2340673749.00,2352037717.00,,GDP per capita (current US$),East Asia & Pacific,EAS,9856,10468,11319,11500,0,,,,"Population, total",American Samoa,ASM,55739.00,55617.00,55461.00,55312.00,55197.00
GDP per capita (current US$),Andorra,AND,37476,38965,41792,40897,0,,"Population, total",Europe & Central Asia,ECS,910910900.00,914655081.00,918082509.00,920809471.00,923489941.00,,GDP per capita (current US$),Europe & Central Asia,ECS,22405,23617,25222,24791,23780,,,,"Population, total",Andorra,AND,77295.00,76997.00,77008.00,77146.00,77265.00
GDP per capita (current US$),Angola,AGO,3506,4096,3290,2810,1896,,"Population, total",European Union,EUU,445487730.00,446186344.00,446915113.00,447196538.00,447794691.00,,GDP per capita (current US$),European Union,EUU,31165,33009,35704,34960,33928,,,,"Population, total",Angola,AGO,28842482.00,29816769.00,30809787.00,31825299.00,32866268.00
GDP per capita (current US$),Antigua and Barbuda,ATG,15199,15384,16673,17113,14450,,"Population, total",Latin America & Caribbean,LCN,628493594.00,634566052.00,640483586.00,646430786.00,652276325.00,,GDP per capita (current US$),Latin America & Caribbean,LCN,8601,9461,9158,8952,7417,,,,"Population, total",Antigua and Barbuda,ATG,94520.00,95425.00,96282.00,97115.00,97928.00
GDP per capita (current US$),Argentina,ARG,12790,14613,11633,9912,8442,,"Population, total",Middle East & North Africa,MEA,433616042.00,441298977.00,448974232.00,456709496.00,464554123.00,,GDP per capita (current US$),Middle East & North Africa,MEA,7257,7403,7547,7512,6670,,,,"Population, total",Argentina,ARG,43590368.00,44044811.00,44494502.00,44938712.00,45376763.00
GDP per capita (current US$),Armenia,ARM,3592,3915,4221,4623,4267,,"Population, total",North America,NAC,359245796.00,361731296.00,363967296.00,365987250.00,367553264.00,,GDP per capita (current US$),North America,NAC,56452,58605,61382,63342,61453,,,,"Population, total",Armenia,ARM,2936147.00,2944789.00,2951741.00,2957728.00,2963234.00
GDP per capita (current US$),Aruba,ABW,28452,29351,30253,0,0,,"Population, total",Pacific island small states,PSS,2385744.00,2419767.00,2455336.00,2491878.00,2528958.00,,GDP per capita (current US$),Pacific island small states,PSS,3962,4221,4337,4269,3626,,,,"Population, total",Aruba,ABW,104865.00,105361.00,105846.00,106310.00,106766.00
GDP per capita (current US$),Australia,AUS,49971,54028,57355,55057,51812,,"Population, total",South Asia,SAS,1771187426.00,1792883164.00,1814455018.00,1835776769.00,1856882402.00,,GDP per capita (current US$),South Asia,SAS,1652,1868,1894,1959,1805,,,,"Population, total",Australia,AUS,24190907.00,24601860.00,24982688.00,25365745.00,25687041.00
GDP per capita (current US$),Austria,AUT,45277,47309,51453,50122,48105,,"Population, total",Sub-Saharan Africa,SSF,1022530245.00,1050162810.00,1078319512.00,1106957870.00,1136046775.00,,GDP per capita (current US$),Sub-Saharan Africa,SSF,1508,1564,1597,1599,1484,,,,"Population, total",Austria,AUT,8736668.00,8797566.00,8840521.00,8879920.00,8917205.00
GDP per capita (current US$),Azerbaijan,AZE,3881,4147,4740,4806,4214,,,,,,,,,,,,,,,,,,,,,,"Population, total",Azerbaijan,AZE,9757812.00,9854033.00,9939771.00,10024283.00,10110116.00
GDP per capita (current US$),"Bahamas, The",BHS,31563,32720,33768,34863,28608,,,,,,,,,,,,,,,,,,,,,,"Population, total","Bahamas, The",BHS,377923.00,381749.00,385635.00,389486.00,393248.00
GDP per capita (current US$),Bahrain,BHR,22608,23743,23991,23443,0,,,,,,,,,,,,,,,,,,,,,,"Population, total",Bahrain,BHR,1425793.00,1494077.00,1569440.00,1641164.00,1701583.00
GDP per capita (current US$),Bangladesh,BGD,1402,1564,1698,1856,1969,,,,,,,,,,,,,,,,,,,,,,"Population, total",Bangladesh,BGD,157977151.00,159685421.00,161376713.00,163046173.00,164689383.00
GDP per capita (current US$),Barbados,BRB,16900,17392,17745,18148,15191,,,,,,,,,,,,,,,,,,,,,,"Population, total",Barbados,BRB,285798.00,286229.00,286640.00,287021.00,287371.00
GDP per capita (current US$),Belarus,BLR,5023,5762,6330,6839,6411,,,,,,,,,,,,,,,,,,,,,,"Population, total",Belarus,BLR,9501534.00,9498264.00,9483499.00,9417849.00,9398861.00
GDP per capita (current US$),Belgium,BEL,41984,44089,47555,46414,44594,,,,,,,,,,,,,,,,,,,,,,"Population, total",Belgium,BEL,11331422.00,11375158.00,11427054.00,11488980.00,11555997.00
GDP per capita (current US$),Belize,BLZ,4857,4946,5001,5079,4436,,,,,,,,,,,,,,,,,,,,,,"Population, total",Belize,BLZ,368399.00,375775.00,383071.00,390351.00,397621.00
GDP per capita (current US$),Benin,BEN,1087,1137,1241,1220,1291,,,,,,,,,,,,,,,,,,,,,,"Population, total",Benin,BEN,10872072.00,11175192.00,11485035.00,11801151.00,12123198.00
GDP per capita (current US$),Bermuda,BMU,106886,111821,113023,117098,0,,,,,,,,,,,,,,,,,,,,,,"Population, total",Bermuda,BMU,64554.00,63873.00,63919.00,63913.00,63903.00
GDP per capita (current US$),Bhutan,BTN,2931,3287,3243,3316,3122,,,,,,,,,,,,,,,,,,,,,,"Population, total",Bhutan,BTN,736706.00,745563.00,754396.00,763094.00,771612.00
GDP per capita (current US$),Bolivia,BOL,3077,3351,3549,3552,3143,,,,,,,,,,,,,,,,,,,,,,"Population, total",Bolivia,BOL,11031822.00,11192853.00,11353140.00,11513102.00,11673029.00
GDP per capita (current US$),Bosnia and Herz.,BIH,4995,5395,6072,6120,6032,,,,,,,,,,,,,,,,,,,,,,"Population, total",Bosnia and Herzegovina,BIH,3386263.00,3351534.00,3323929.00,3300998.00,3280815.00
GDP per capita (current US$),Botswana,BWA,7244,7893,8280,7971,6711,,,,,,,,,,,,,,,,,,,,,,"Population, total",Botswana,BWA,2159925.00,2205076.00,2254067.00,2303703.00,2351625.00
GDP per capita (current US$),Brazil,BRA,8710,9929,9151,8897,6797,,,,,,,,,,,,,,,,,,,,,,"Population, total",Brazil,BRA,206163056.00,207833825.00,209469320.00,211049519.00,212559409.00
GDP per capita (current US$),British Virgin Islands,VGB,0,0,0,0,0,,,,,,,,,,,,,,,,,,,,,,"Population, total",British Virgin Islands,VGB,29355.00,29567.00,29795.00,30033.00,30237.00
GDP per capita (current US$),Brunei Darussalam,BRN,27158,28572,31628,31086,27466,,,,,,,,,,,,,,,,,,,,,,"Population, total",Brunei Darussalam,BRN,419791.00,424481.00,428960.00,433296.00,437483.00
GDP per capita (current US$),Bulgaria,BGR,7549,8334,9428,9828,9976,,,,,,,,,,,,,,,,,,,,,,"Population, total",Bulgaria,BGR,7127822.00,7075947.00,7025037.00,6975761.00,6927288.00
GDP per capita (current US$),Burkina Faso,BFA,688,735,813,787,831,,,,,,,,,,,,,,,,,,,,,,"Population, total",Burkina Faso,BFA,18646350.00,19193236.00,19751466.00,20321383.00,20903278.00
GDP per capita (current US$),Burundi,BDI,282,293,272,261,274,,,,,,,,,,,,,,,,,,,,,,"Population, total",Burundi,BDI,10488002.00,10827010.00,11175379.00,11530577.00,11890781.00
GDP per capita (current US$),Cabo Verde,CPV,3131,3293,3617,3604,3064,,,,,,,,,,,,,,,,,,,,,,"Population, total",Cabo Verde,CPV,531140.00,537499.00,543764.00,549936.00,555988.00
GDP per capita (current US$),Cambodia,KHM,1270,1385,1512,1643,1513,,,,,,,,,,,,,,,,,,,,,,"Population, total",Cambodia,KHM,15766290.00,16009413.00,16249795.00,16486542.00,16718971.00
GDP per capita (current US$),Cameroon,CMR,1364,1425,1534,1507,1499,,,,,,,,,,,,,,,,,,,,,,"Population, total",Cameroon,CMR,23926549.00,24566070.00,25216261.00,25876387.00,26545864.00
GDP per capita (current US$),Canada,CAN,42316,45129,46455,46327,43242,,,,,,,,,,,,,,,,,,,,,,"Population, total",Canada,CAN,36109487.00,36545295.00,37065178.00,37593384.00,38005238.00
GDP per capita (current US$),Cayman Islands,CYM,78472,81513,86060,91393,0,,,,,,,,,,,,,,,,,,,,,,"Population, total",Cayman Islands,CYM,62564.00,63382.00,64172.00,64948.00,65720.00
GDP per capita (current US$),Central African Rep.,CAF,402,451,476,468,477,,,,,,,,,,,,,,,,,,,,,,"Population, total",Central African Republic,CAF,4537683.00,4596023.00,4666375.00,4745179.00,4829764.00
GDP per capita (current US$),Chad,TCD,693,666,726,710,614,,,,,,,,,,,,,,,,,,,,,,"Population, total",Chad,TCD,14561658.00,15016761.00,15477727.00,15946882.00,16425859.00
GDP per capita (current US$),Channel Islands,CHI,0,0,0,0,0,,,,,,,,,,,,,,,,,,,,,,"Population, total",Channel Islands,CHI,166922.00,168666.00,170496.00,172264.00,173859.00
GDP per capita (current US$),Chile,CHL,13754,14999,15888,14742,13232,,,,,,,,,,,,,,,,,,,,,,"Population, total",Chile,CHL,18209072.00,18470435.00,18729166.00,18952035.00,19116209.00
GDP per capita (current US$),China,CHN,8148,8879,9977,10217,10500,,,,,,,,,,,,,,,,,,,,,,"Population, total",China,CHN,1378665000.00,1386395000.00,1392730000.00,1397715000.00,1402112000.00
GDP per capita (current US$),Colombia,COL,5871,6377,6730,6425,5333,,,,,,,,,,,,,,,,,,,,,,"Population, total",Colombia,COL,48175048.00,48909844.00,49661056.00,50339443.00,50882884.00
GDP per capita (current US$),Comoros,COM,1273,1324,1416,1370,1403,,,,,,,,,,,,,,,,,,,,,,"Population, total",Comoros,COM,795597.00,813890.00,832322.00,850891.00,869595.00
GDP per capita (current US$),Dem. Rep. Congo,COD,471,467,557,581,557,,,,,,,,,,,,,,,,,,,,,,"Population, total","Congo, Dem. Rep.",COD,78789130.00,81398765.00,84068092.00,86790568.00,89561404.00
GDP per capita (current US$),Congo,COG,2039,2174,2601,2359,1973,,,,,,,,,,,,,,,,,,,,,,"Population, total","Congo, Rep.",COG,4980996.00,5110701.00,5244363.00,5380504.00,5518092.00
GDP per capita (current US$),Costa Rica,CRI,12011,12226,12469,12670,12077,,,,,,,,,,,,,,,,,,,,,,"Population, total",Costa Rica,CRI,4899336.00,4949955.00,4999443.00,5047561.00,5094114.00
GDP per capita (current US$),Côte d'Ivoire,CIV,2013,2111,2314,2276,2326,,,,,,,,,,,,,,,,,,,,,,"Population, total",Cote d'Ivoire,CIV,23822726.00,24437475.00,25069226.00,25716554.00,26378275.00
GDP per capita (current US$),Croatia,HRV,12361,13452,15014,14944,13828,,,,,,,,,,,,,,,,,,,,,,"Population, total",Croatia,HRV,4174349.00,4124531.00,4087843.00,4065253.00,4047200.00
GDP per capita (current US$),Cuba,CUB,8061,8541,8824,9100,0,,,,,,,,,,,,,,,,,,,,,,"Population, total",Cuba,CUB,11335108.00,11339255.00,11338146.00,11333484.00,11326616.00
GDP per capita (current US$),Curacao,CUW,19555,19458,19631,19701,0,,,,,,,,,,,,,,,,,,,,,,"Population, total",Curacao,CUW,159664.00,160175.00,159336.00,157441.00,155014.00
GDP per capita (current US$),Cyprus,CYP,24606,26444,29089,28288,26624,,,,,,,,,,,,,,,,,,,,,,"Population, total",Cyprus,CYP,1170189.00,1179685.00,1189262.00,1198574.00,1207361.00
GDP per capita (current US$),Czechia,CZE,18575,20636,23420,23490,22762,,,,,,,,,,,,,,,,,,,,,,"Population, total",Czech Republic,CZE,10566332.00,10594438.00,10629928.00,10671870.00,10698896.00
GDP per capita (current US$),Denmark,DNK,54664,57610,61599,60213,60909,,,,,,,,,,,,,,,,,,,,,,"Population, total",Denmark,DNK,5728010.00,5764980.00,5793636.00,5814422.00,5831404.00
GDP per capita (current US$),Djibouti,DJI,2802,2914,3142,3415,3426,,,,,,,,,,,,,,,,,,,,,,"Population, total",Djibouti,DJI,929117.00,944100.00,958923.00,973557.00,988002.00
GDP per capita (current US$),Dominica,DMA,8081,7275,7694,8002,6527,,,,,,,,,,,,,,,,,,,,,,"Population, total",Dominica,DMA,71307.00,71460.00,71626.00,71808.00,71991.00
GDP per capita (current US$),Dominican Rep.,DOM,7281,7609,8051,8282,7268,,,,,,,,,,,,,,,,,,,,,,"Population, total",Dominican Republic,DOM,10397738.00,10513111.00,10627147.00,10738957.00,10847904.00
GDP per capita (current US$),Ecuador,ECU,6060,6214,6296,6223,5600,,,,,,,,,,,,,,,,,,,,,,"Population, total",Ecuador,ECU,16491116.00,16785356.00,17084359.00,17373657.00,17643060.00
GDP per capita (current US$),Egypt,EGY,3520,2444,2537,3019,3548,,,,,,,,,,,,,,,,,,,,,,"Population, total","Egypt, Arab Rep.",EGY,94447071.00,96442590.00,98423602.00,100388076.00,102334403.00
GDP per capita (current US$),El Salvador,SLV,3806,3910,4053,4168,3799,,,,,,,,,,,,,,,,,,,,,,"Population, total",El Salvador,SLV,6356137.00,6388124.00,6420740.00,6453550.00,6486201.00
GDP per capita (current US$),Equatorial Guinea,GNQ,9250,9668,10006,8420,7143,,,,,,,,,,,,,,,,,,,,,,"Population, total",Equatorial Guinea,GNQ,1215181.00,1262008.00,1308966.00,1355982.00,1402985.00
GDP per capita (current US$),Eritrea,ERI,0,0,0,0,0,,,,,,,,,,,,,,,,,,,,,,"Population, total",Eritrea,ERI,0.00,0.00,0.00,0.00,0.00
GDP per capita (current US$),Estonia,EST,18437,20408,23159,23718,23312,,,,,,,,,,,,,,,,,,,,,,"Population, total",Estonia,EST,1315790.00,1317384.00,1321977.00,1326898.00,1331057.00
GDP per capita (current US$),Ethiopia,ETH,717,769,772,856,936,,,,,,,,,,,,,,,,,,,,,,"Population, total",Ethiopia,ETH,103603461.00,106399926.00,109224410.00,112078727.00,114963583.00
GDP per capita (current US$),Faroe Islands,FRO,56854,59993,62918,64225,0,,,,,,,,,,,,,,,,,,,,,,"Population, total",Faroe Islands,FRO,48173.00,48326.00,48497.00,48677.00,48865.00
GDP per capita (current US$),Fiji,FJI,5651,6101,6317,6176,4882,,,,,,,,,,,,,,,,,,,,,,"Population, total",Fiji,FJI,872406.00,877460.00,883490.00,889955.00,896444.00
GDP per capita (current US$),Finland,FIN,43784,46297,50013,48712,49041,,,,,,,,,,,,,,,,,,,,,,"Population, total",Finland,FIN,5495303.00,5508214.00,5515525.00,5521606.00,5530719.00
GDP per capita (current US$),France,FRA,37037,38685,41526,40380,38625,,,,,,,,,,,,,,,,,,,,,,"Population, total",France,FRA,66724104.00,66918020.00,67101930.00,67248926.00,67391582.00
GDP per capita (current US$),French Polynesia,PYF,0,0,0,0,0,,,,,,,,,,,,,,,,,,,,,,"Population, total",French Polynesia,PYF,274576.00,276108.00,277673.00,279285.00,280904.00
GDP per capita (current US$),Gabon,GAB,6984,7230,7957,7767,7006,,,,,,,,,,,,,,,,,,,,,,"Population, total",Gabon,GAB,2007882.00,2064812.00,2119275.00,2172578.00,2225728.00
GDP per capita (current US$),"Gambia, The",GMB,691,680,733,778,787,,,,,,,,,,,,,,,,,,,,,,"Population, total","Gambia, The",GMB,2149134.00,2213900.00,2280092.00,2347696.00,2416664.00
GDP per capita (current US$),Georgia,GEO,4062,4357,4723,4698,4279,,,,,,,,,,,,,,,,,,,,,,"Population, total",Georgia,GEO,3727505.00,3728004.00,3726549.00,3720161.00,3714000.00
GDP per capita (current US$),Germany,DEU,42108,44443,47787,46468,45724,,,,,,,,,,,,,,,,,,,,,,"Population, total",Germany,DEU,82348669.00,82657002.00,82905782.00,83092962.00,83240525.00
GDP per capita (current US$),Ghana,GHA,1913,2021,2194,2210,2329,,,,,,,,,,,,,,,,,,,,,,"Population, total",Ghana,GHA,28481947.00,29121464.00,29767108.00,30417858.00,31072945.00
GDP per capita (current US$),Gibraltar,GIB,0,0,0,0,0,,,,,,,,,,,,,,,,,,,,,,"Population, total",Gibraltar,GIB,33738.00,33723.00,33715.00,33706.00,33691.00
GDP per capita (current US$),Greece,GRC,17885,18562,19766,19151,17676,,,,,,,,,,,,,,,,,,,,,,"Population, total",Greece,GRC,10775971.00,10754679.00,10732882.00,10721582.00,10715549.00
GDP per capita (current US$),Greenland,GRL,48182,50321,54471,0,0,,,,,,,,,,,,,,,,,,,,,,"Population, total",Greenland,GRL,56186.00,56172.00,56023.00,56225.00,56367.00
GDP per capita (current US$),Grenada,GRD,9628,10153,10486,10816,9680,,,,,,,,,,,,,,,,,,,,,,"Population, total",Grenada,GRD,110263.00,110874.00,111449.00,112002.00,112519.00
GDP per capita (current US$),Guam,GUM,36214,36602,36502,37724,0,,,,,,,,,,,,,,,,,,,,,,"Population, total",Guam,GUM,162948.00,164281.00,165770.00,167295.00,168783.00
GDP per capita (current US$),Guatemala,GTM,4173,4454,4478,4639,4603,,,,,,,,,,,,,,,,,,,,,,"Population, total",Guatemala,GTM,15827690.00,16087418.00,16346950.00,16604026.00,16858333.00
GDP per capita (current US$),Guinea,GIN,732,856,955,1058,1194,,,,,,,,,,,,,,,,,,,,,,"Population, total",Guinea,GIN,11738434.00,12067516.00,12414292.00,12771246.00,13132792.00
GDP per capita (current US$),Guinea-Bissau,GNB,661,739,803,749,728,,,,,,,,,,,,,,,,,,,,,,"Population, total",Guinea-Bissau,GNB,1782434.00,1828146.00,1874304.00,1920917.00,1967998.00
GDP per capita (current US$),Guyana,GUY,5811,6125,6146,6610,6956,,,,,,,,,,,,,,,,,,,,,,"Population, total",Guyana,GUY,771363.00,775218.00,779007.00,782775.00,786559.00
GDP per capita (current US$),Haiti,HTI,1266,1294,1435,1272,1177,,,,,,,,,,,,,,,,,,,,,,"Population, total",Haiti,HTI,10839976.00,10982367.00,11123183.00,11263079.00,11402533.00
GDP per capita (current US$),Honduras,HND,2343,2454,2510,2574,2406,,,,,,,,,,,,,,,,,,,,,,"Population, total",Honduras,HND,9270794.00,9429016.00,9587523.00,9746115.00,9904608.00
GDP per capita (current US$),"Hong Kong SAR, China",HKG,43731,46166,48543,48354,46324,,,,,,,,,,,,,,,,,,,,,,"Population, total","Hong Kong SAR, China",HKG,7336600.00,7391700.00,7451000.00,7507400.00,7481800.00
GDP per capita (current US$),Hungary,HUN,13091,14606,16411,16733,15899,,,,,,,,,,,,,,,,,,,,,,"Population, total",Hungary,HUN,9814023.00,9787966.00,9775564.00,9771141.00,9749763.00
GDP per capita (current US$),Iceland,ISL,61988,72010,74348,68883,59261,,,,,,,,,,,,,,,,,,,,,,"Population, total",Iceland,ISL,335439.00,343400.00,352721.00,360563.00,366425.00
GDP per capita (current US$),India,IND,1733,1981,1997,2101,1901,,,,,,,,,,,,,,,,,,,,,,"Population, total",India,IND,1324517250.00,1338676779.00,1352642283.00,1366417756.00,1380004385.00
GDP per capita (current US$),Indonesia,IDN,3563,3838,3894,4135,3870,,,,,,,,,,,,,,,,,,,,,,"Population, total",Indonesia,IDN,261556386.00,264650969.00,267670549.00,270625567.00,273523621.00
GDP per capita (current US$),Iran,IRN,5253,5520,3598,3115,2283,,,,,,,,,,,,,,,,,,,,,,"Population, total","Iran, Islamic Rep.",IRN,79563991.00,80673888.00,81800204.00,82913893.00,83992953.00
GDP per capita (current US$),Iraq,IRQ,4551,5077,5523,5658,4157,,,,,,,,,,,,,,,,,,,,,,"Population, total",Iraq,IRQ,36610632.00,37552789.00,38433604.00,39309789.00,40222503.00
GDP per capita (current US$),Ireland,IRL,62994,70413,79298,80779,83813,,,,,,,,,,,,,,,,,,,,,,"Population, total",Ireland,IRL,4755335.00,4807388.00,4867316.00,4934340.00,4994724.00
GDP per capita (current US$),Isle of Man,IMN,82197,83478,89113,0,0,,,,,,,,,,,,,,,,,,,,,,"Population, total",Isle of Man,IMN,83296.00,83610.00,84073.00,84589.00,85032.00
GDP per capita (current US$),Israel,ISR,37283,40475,41705,43589,43611,,,,,,,,,,,,,,,,,,,,,,"Population, total",Israel,ISR,8546000.00,8713300.00,8882800.00,9054000.00,9216900.00
GDP per capita (current US$),Italy,ITA,30940,32327,34609,33567,31676,,,,,,,,,,,,,,,,,,,,,,"Population, total",Italy,ITA,60627498.00,60536709.00,60421760.00,59729081.00,59554023.00
GDP per capita (current US$),Jamaica,JAM,4844,5070,5360,5369,4665,,,,,,,,,,,,,,,,,,,,,,"Population, total",Jamaica,JAM,2906242.00,2920848.00,2934853.00,2948277.00,2961161.00
GDP per capita (current US$),Japan,JPN,38762,38387,39159,40113,0,,,,,,,,,,,,,,,,,,,,,,"Population, total",Japan,JPN,126994511.00,126785797.00,126529100.00,126264931.00,125836021.00
GDP per capita (current US$),Jordan,JOR,4175,4232,4308,4405,4283,,,,,,,,,,,,,,,,,,,,,,"Population, total",Jordan,JOR,9554286.00,9785840.00,9965322.00,10101697.00,10203140.00
GDP per capita (current US$),Kazakhstan,KAZ,7715,9248,9813,9813,9056,,,,,,,,,,,,,,,,,,,,,,"Population, total",Kazakhstan,KAZ,17794055.00,18037776.00,18276452.00,18513673.00,18754440.00
GDP per capita (current US$),Kenya,KEN,1411,1572,1708,1817,1838,,,,,,,,,,,,,,,,,,,,,,"Population, total",Kenya,KEN,49051531.00,50221146.00,51392570.00,52573967.00,53771300.00
GDP per capita (current US$),Kiribati,KIR,1585,1641,1698,1655,1671,,,,,,,,,,,,,,,,,,,,,,"Population, total",Kiribati,KIR,112529.00,114153.00,115842.00,117608.00,119446.00
GDP per capita (current US$),N. Korea,PRK,0,0,0,0,0,,,,,,,,,,,,,,,,,,,,,,"Population, total","Korea, Dem. People's Rep.",PRK,25307665.00,25429816.00,25549606.00,25666158.00,25778815.00
GDP per capita (current US$),South Korea,KOR,29289,31617,33423,31846,31489,,,,,,,,,,,,,,,,,,,,,,"Population, total","Korea, Rep.",KOR,51217803.00,51361911.00,51606633.00,51709098.00,51780579.00
GDP per capita (current US$),Kosovo,XKX,3780,4046,4420,4446,4287,,,,,,,,,,,,,,,,,,,,,,"Population, total",Kosovo,XKX,1777557.00,1791003.00,1797085.00,1788878.00,1775378.00
GDP per capita (current US$),Kuwait,KWT,27653,29759,33399,32373,0,,,,,,,,,,,,,,,,,,,,,,"Population, total",Kuwait,KWT,3956862.00,4056102.00,4137314.00,4207077.00,4270563.00
GDP per capita (current US$),Kyrgyzstan,KGZ,1121,1243,1308,1374,1174,,,,,,,,,,,,,,,,,,,,,,"Population, total",Kyrgyz Republic,KGZ,6079500.00,6198200.00,6322800.00,6456200.00,6591600.00
GDP per capita (current US$),Laos,LAO,2309,2424,2542,2545,2630,,,,,,,,,,,,,,,,,,,,,,"Population, total",Lao PDR,LAO,6845848.00,6953031.00,7061498.00,7169456.00,7275556.00
GDP per capita (current US$),Latvia,LVA,14316,15643,17850,17794,17620,,,,,,,,,,,,,,,,,,,,,,"Population, total",Latvia,LVA,1959537.00,1942248.00,1927174.00,1913822.00,1901548.00
GDP per capita (current US$),Lebanon,LBN,7626,7793,8013,7584,4891,,,,,,,,,,,,,,,,,,,,,,"Population, total",Lebanon,LBN,6714281.00,6819373.00,6859408.00,6855709.00,6825442.00
GDP per capita (current US$),Lesotho,LSO,1019,1103,1192,1113,861,,,,,,,,,,,,,,,,,,,,,,"Population, total",Lesotho,LSO,2075041.00,2091532.00,2108327.00,2125267.00,2142252.00
GDP per capita (current US$),Liberia,LBR,715,699,677,622,583,,,,,,,,,,,,,,,,,,,,,,"Population, total",Liberia,LBR,4586788.00,4702224.00,4818976.00,4937374.00,5057677.00
GDP per capita (current US$),Libya,LBY,4035,5757,7877,7686,3699,,,,,,,,,,,,,,,,,,,,,,"Population, total",Libya,LBY,6492160.00,6580723.00,6678565.00,6777453.00,6871287.00
GDP per capita (current US$),Liechtenstein,LIE,165642,171254,180367,0,0,,,,,,,,,,,,,,,,,,,,,,"Population, total",Liechtenstein,LIE,37655.00,37805.00,37918.00,38020.00,38137.00
GDP per capita (current US$),Lithuania,LTU,14998,16844,19167,19555,19998,,,,,,,,,,,,,,,,,,,,,,"Population, total",Lithuania,LTU,2868231.00,2828403.00,2801543.00,2794137.00,2794700.00
GDP per capita (current US$),Luxembourg,LUX,104278,107361,116597,114685,115874,,,,,,,,,,,,,,,,,,,,,,"Population, total",Luxembourg,LUX,582014.00,596336.00,607950.00,620001.00,632275.00
GDP per capita (current US$),"Macao SAR, China",MAC,73569,81045,87555,86118,0,,,,,,,,,,,,,,,,,,,,,,"Population, total","Macao SAR, China",MAC,612824.00,622578.00,631633.00,640446.00,649342.00
GDP per capita (current US$),Macedonia,MKD,5133,5432,6087,6022,5888,,,,,,,,,,,,,,,,,,,,,,"Population, total",North Macedonia,MKD,2080746.00,2081996.00,2082957.00,2083458.00,2083380.00
GDP per capita (current US$),Madagascar,MDG,476,515,518,526,495,,,,,,,,,,,,,,,,,,,,,,"Population, total",Madagascar,MDG,24894370.00,25570511.00,26262313.00,26969306.00,27691019.00
GDP per capita (current US$),Malawi,MWI,316,497,535,583,625,,,,,,,,,,,,,,,,,,,,,,"Population, total",Malawi,MWI,17205253.00,17670193.00,18143215.00,18628749.00,19129955.00
GDP per capita (current US$),Malaysia,MYS,9818,10259,11378,11414,10402,,,,,,,,,,,,,,,,,,,,,,"Population, total",Malaysia,MYS,30684652.00,31104655.00,31528033.00,31949789.00,32365998.00
GDP per capita (current US$),Maldives,MDV,9209,9578,10277,10626,7456,,,,,,,,,,,,,,,,,,,,,,"Population, total",Maldives,MDV,475505.00,496398.00,515704.00,530957.00,540542.00
GDP per capita (current US$),Mali,MLI,781,830,895,879,859,,,,,,,,,,,,,,,,,,,,,,"Population, total",Mali,MLI,17965448.00,18512429.00,19077755.00,19658023.00,20250834.00
GDP per capita (current US$),Malta,MLT,25741,28251,30672,30186,27885,,,,,,,,,,,,,,,,,,,,,,"Population, total",Malta,MLT,455356.00,467999.00,484630.00,504062.00,525285.00
GDP per capita (current US$),Marshall Islands,MHL,3491,3673,3794,4073,0,,,,,,,,,,,,,,,,,,,,,,"Population, total",Marshall Islands,MHL,57723.00,58053.00,58412.00,58791.00,59194.00
GDP per capita (current US$),Mauritania,MRT,1537,1578,1601,1679,1673,,,,,,,,,,,,,,,,,,,,,,"Population, total",Mauritania,MRT,4163532.00,4282582.00,4403312.00,4525698.00,4649660.00
GDP per capita (current US$),Mauritius,MUS,9682,10485,11208,11098,8623,,,,,,,,,,,,,,,,,,,,,,"Population, total",Mauritius,MUS,1263473.00,1264613.00,1265303.00,1265711.00,1265740.00
GDP per capita (current US$),Mexico,MEX,8745,9288,9687,9946,8347,,,,,,,,,,,,,,,,,,,,,,"Population, total",Mexico,MEX,123333379.00,124777326.00,126190782.00,127575529.00,128932753.00
GDP per capita (current US$),"Micronesia, Fed. Sts.",FSM,3015,3290,3568,3585,0,,,,,,,,,,,,,,,,,,,,,,"Population, total","Micronesia, Fed. Sts.",FSM,110215.00,111461.00,112640.00,113811.00,115021.00
GDP per capita (current US$),Moldova,MDA,2880,3510,4230,4494,4551,,,,,,,,,,,,,,,,,,,,,,"Population, total",Moldova,MDA,2802170.00,2755158.00,2708214.00,2663251.00,2617820.00
GDP per capita (current US$),Monaco,MCO,170029,167517,185979,190513,0,,,,,,,,,,,,,,,,,,,,,,"Population, total",Monaco,MCO,38070.00,38392.00,38682.00,38967.00,39244.00
GDP per capita (current US$),Mongolia,MNG,3660,3669,4135,4340,4007,,,,,,,,,,,,,,,,,,,,,,"Population, total",Mongolia,MNG,3056358.00,3113788.00,3170214.00,3225166.00,3278292.00
GDP per capita (current US$),Montenegro,MNE,7034,7803,8850,8911,7686,,,,,,,,,,,,,,,,,,,,,,"Population, total",Montenegro,MNE,622303.00,622373.00,622227.00,622028.00,621718.00
GDP per capita (current US$),Morocco,MAR,2897,3035,3227,3230,3009,,,,,,,,,,,,,,,,,,,,,,"Population, total",Morocco,MAR,35126274.00,35581257.00,36029089.00,36471766.00,36910558.00
GDP per capita (current US$),Mozambique,MOZ,429,461,503,504,449,,,,,,,,,,,,,,,,,,,,,,"Population, total",Mozambique,MOZ,27829930.00,28649007.00,29496009.00,30366043.00,31255435.00
GDP per capita (current US$),Myanmar,MMR,1158,1258,1279,1477,1400,,,,,,,,,,,,,,,,,,,,,,"Population, total",Myanmar,MMR,53045199.00,53382521.00,53708318.00,54045422.00,54409794.00
GDP per capita (current US$),Namibia,NAM,4547,5367,5588,5037,4211,,,,,,,,,,,,,,,,,,,,,,"Population, total",Namibia,NAM,2358044.00,2402623.00,2448300.00,2494524.00,2540916.00
GDP per capita (current US$),Nauru,NRU,9556,10361,11615,10983,0,,,,,,,,,,,,,,,,,,,,,,"Population, total",Nauru,NRU,10474.00,10577.00,10678.00,10764.00,10834.00
GDP per capita (current US$),Nepal,NPL,900,1048,1179,1195,1155,,,,,,,,,,,,,,,,,,,,,,"Population, total",Nepal,NPL,27263430.00,27632682.00,28095712.00,28608715.00,29136808.00
GDP per capita (current US$),Netherlands,NLD,46008,48555,53019,52295,52304,,,,,,,,,,,,,,,,,,,,,,"Population, total",Netherlands,NLD,17030314.00,17131296.00,17231624.00,17344874.00,17441139.00
GDP per capita (current US$),New Caledonia,NCL,0,0,0,0,0,,,,,,,,,,,,,,,,,,,,,,"Population, total",New Caledonia,NCL,269350.00,270000.00,270650.00,271300.00,271960.00
GDP per capita (current US$),New Zealand,NZL,40080,42993,43306,41999,41792,,,,,,,,,,,,,,,,,,,,,,"Population, total",New Zealand,NZL,4714100.00,4813600.00,4900600.00,4979300.00,5084300.00
GDP per capita (current US$),Nicaragua,NIC,2108,2159,2015,1927,1905,,,,,,,,,,,,,,,,,,,,,,"Population, total",Nicaragua,NIC,6303970.00,6384843.00,6465502.00,6545503.00,6624554.00
GDP per capita (current US$),Niger,NER,498,518,572,554,565,,,,,,,,,,,,,,,,,,,,,,"Population, total",Niger,NER,20788789.00,21602388.00,22442831.00,23310719.00,24206636.00
GDP per capita (current US$),Nigeria,NGA,2176,1969,2028,2230,2097,,,,,,,,,,,,,,,,,,,,,,"Population, total",Nigeria,NGA,185960244.00,190873247.00,195874685.00,200963603.00,206139587.00
GDP per capita (current US$),Northern Mariana Islands,MNP,21891,27585,22887,20660,0,,,,,,,,,,,,,,,,,,,,,,"Population, total",Northern Mariana Islands,MNP,56187.00,56553.00,56889.00,57213.00,57557.00
GDP per capita (current US$),Norway,NOR,70461,75497,82268,75826,67294,,,,,,,,,,,,,,,,,,,,,,"Population, total",Norway,NOR,5234519.00,5276968.00,5311916.00,5347896.00,5379475.00
GDP per capita (current US$),Oman,OMN,14610,15128,16521,15343,0,,,,,,,,,,,,,,,,,,,,,,"Population, total",Oman,OMN,4479217.00,4665926.00,4829476.00,4974992.00,5106622.00
GDP per capita (current US$),Pakistan,PAK,1368,1465,1482,1285,1194,,,,,,,,,,,,,,,,,,,,,,"Population, total",Pakistan,PAK,203631356.00,207906210.00,212228288.00,216565317.00,220892331.00
GDP per capita (current US$),Palau,PLW,16653,16065,15657,14908,0,,,,,,,,,,,,,,,,,,,,,,"Population, total",Palau,PLW,17718.00,17809.00,17911.00,18001.00,18092.00
GDP per capita (current US$),Panama,PAN,14344,15146,15545,15728,12269,,,,,,,,,,,,,,,,,,,,,,"Population, total",Panama,PAN,4037073.00,4106764.00,4176868.00,4246440.00,4314768.00
GDP per capita (current US$),Papua New Guinea,PNG,2510,2695,2801,2829,2637,,,,,,,,,,,,,,,,,,,,,,"Population, total",Papua New Guinea,PNG,8271766.00,8438038.00,8606324.00,8776119.00,8947027.00
GDP per capita (current US$),Paraguay,PRY,5325,5679,5783,5381,4950,,,,,,,,,,,,,,,,,,,,,,"Population, total",Paraguay,PRY,6777878.00,6867058.00,6956069.00,7044639.00,7132530.00
GDP per capita (current US$),Peru,PER,6205,6711,6958,7028,6127,,,,,,,,,,,,,,,,,,,,,,"Population, total",Peru,PER,30926036.00,31444299.00,31989265.00,32510462.00,32971846.00
GDP per capita (current US$),Philippines,PHL,3074,3123,3252,3485,3299,,,,,,,,,,,,,,,,,,,,,,"Population, total",Philippines,PHL,103663812.00,105172921.00,106651394.00,108116622.00,109581085.00
GDP per capita (current US$),Poland,POL,12447,13865,15468,15695,15656,,,,,,,,,,,,,,,,,,,,,,"Population, total",Poland,POL,37970087.00,37974826.00,37974750.00,37965475.00,37950802.00
GDP per capita (current US$),Portugal,PRT,19978,21437,23551,23285,22440,,,,,,,,,,,,,,,,,,,,,,"Population, total",Portugal,PRT,10325452.00,10300300.00,10283822.00,10286263.00,10305564.00
GDP per capita (current US$),Puerto Rico,PRI,30627,31109,31605,32851,32291,,,,,,,,,,,,,,,,,,,,,,"Population, total",Puerto Rico,PRI,3406672.00,3325286.00,3193354.00,3193694.00,3194034.00
GDP per capita (current US$),Qatar,QAT,57163,59125,65908,62088,50805,,,,,,,,,,,,,,,,,,,,,,"Population, total",Qatar,QAT,2654379.00,2724727.00,2781682.00,2832071.00,2881060.00
GDP per capita (current US$),Romania,ROU,9549,10807,12399,12890,12896,,,,,,,,,,,,,,,,,,,,,,"Population, total",Romania,ROU,19702267.00,19588715.00,19473970.00,19371648.00,19286123.00
GDP per capita (current US$),Russia,RUS,8705,10720,11287,11498,10127,,,,,,,,,,,,,,,,,,,,,,"Population, total",Russian Federation,RUS,144342397.00,144496739.00,144477859.00,144406261.00,144104080.00
GDP per capita (current US$),Rwanda,RWA,745,772,784,820,798,,,,,,,,,,,,,,,,,,,,,,"Population, total",Rwanda,RWA,11668829.00,11980960.00,12301969.00,12626938.00,12952209.00
GDP per capita (current US$),Samoa,WSM,4109,4260,4189,4324,4067,,,,,,,,,,,,,,,,,,,,,,"Population, total",Samoa,WSM,194540.00,195358.00,196128.00,197093.00,198410.00
GDP per capita (current US$),San Marino,SMR,43828,45399,48997,47731,0,,,,,,,,,,,,,,,,,,,,,,"Population, total",San Marino,SMR,33503.00,33671.00,33784.00,33864.00,33938.00
GDP per capita (current US$),Sao Tome and Principe,STP,1700,1814,1954,1988,2158,,,,,,,,,,,,,,,,,,,,,,"Population, total",Sao Tome and Principe,STP,203221.00,207086.00,211032.00,215048.00,219161.00
GDP per capita (current US$),Saudi Arabia,SAU,19879,20802,23337,23140,20110,,,,,,,,,,,,,,,,,,,,,,"Population, total",Saudi Arabia,SAU,32443443.00,33101183.00,33702757.00,34268529.00,34813867.00
GDP per capita (current US$),Senegal,SEN,1270,1362,1458,1430,1488,,,,,,,,,,,,,,,,,,,,,,"Population, total",Senegal,SEN,14993514.00,15419354.00,15854324.00,16296362.00,16743930.00
GDP per capita (current US$),Serbia,SRB,5765,6293,7252,7412,7666,,,,,,,,,,,,,,,,,,,,,,"Population, total",Serbia,SRB,7058322.00,7020858.00,6982604.00,6945235.00,6908224.00
GDP per capita (current US$),Seychelles,SYC,15069,15906,16391,16199,11425,,,,,,,,,,,,,,,,,,,,,,"Population, total",Seychelles,SYC,94677.00,95843.00,96762.00,97625.00,98462.00
GDP per capita (current US$),Sierra Leone,SLE,501,499,534,528,485,,,,,,,,,,,,,,,,,,,,,,"Population, total",Sierra Leone,SLE,7328846.00,7488427.00,7650149.00,7813207.00,7976985.00
GDP per capita (current US$),Singapore,SGP,56848,61176,66679,65641,59798,,,,,,,,,,,,,,,,,,,,,,"Population, total",Singapore,SGP,5607283.00,5612253.00,5638676.00,5703569.00,5685807.00
GDP per capita (current US$),Sint Maarten (Dutch part),SXM,31617,29369,29160,0,0,,,,,,,,,,,,,,,,,,,,,,"Population, total",Sint Maarten (Dutch part),SXM,39969.00,40574.00,40654.00,40733.00,40812.00
GDP per capita (current US$),Slovakia,SVK,16509,17504,19365,19273,19157,,,,,,,,,,,,,,,,,,,,,,"Population, total",Slovak Republic,SVK,5430798.00,5439232.00,5446771.00,5454147.00,5458827.00
GDP per capita (current US$),Slovenia,SVN,21664,23455,26103,25941,25180,,,,,,,,,,,,,,,,,,,,,,"Population, total",Slovenia,SVN,2065042.00,2066388.00,2073894.00,2088385.00,2100126.00
GDP per capita (current US$),Solomon Islands,SLB,2225,2333,2412,2344,2258,,,,,,,,,,,,,,,,,,,,,,"Population, total",Solomon Islands,SLB,619438.00,636030.00,652856.00,669821.00,686878.00
GDP per capita (current US$),Somaliland,SOM,296,309,315,320,309,,,,,,,,,,,,,,,,,,,,,,"Population, total",Somalia,SOM,14185635.00,14589165.00,15008225.00,15442906.00,15893219.00
GDP per capita (current US$),South Africa,ZAF,5273,6131,6373,6001,5091,,,,,,,,,,,,,,,,,,,,,,"Population, total",South Africa,ZAF,56207649.00,57009751.00,57792520.00,58558267.00,59308690.00
GDP per capita (current US$),S. Sudan,SSD,0,0,0,0,0,,,,,,,,,,,,,,,,,,,,,,"Population, total",South Sudan,SSD,10832520.00,10910774.00,10975924.00,11062114.00,11193729.00
GDP per capita (current US$),Spain,ESP,26505,28101,30375,29565,27057,,,,,,,,,,,,,,,,,,,,,,"Population, total",Spain,ESP,46484062.00,46593236.00,46797754.00,47133521.00,47351567.00
GDP per capita (current US$),Sri Lanka,LKA,3886,4077,4059,3852,3682,,,,,,,,,,,,,,,,,,,,,,"Population, total",Sri Lanka,LKA,21203000.00,21444000.00,21670000.00,21803000.00,21919000.00
GDP per capita (current US$),St. Kitts and Nevis,KNA,18811,19159,19277,19773,17436,,,,,,,,,,,,,,,,,,,,,,"Population, total",St. Kitts and Nevis,KNA,51629.00,52036.00,52438.00,52834.00,53192.00
GDP per capita (current US$),St. Lucia,LCA,10362,11047,11358,11611,9276,,,,,,,,,,,,,,,,,,,,,,"Population, total",St. Lucia,LCA,180028.00,180955.00,181890.00,182795.00,183629.00
GDP per capita (current US$),St. Martin (French part),MAF,0,0,0,0,0,,,,,,,,,,,,,,,,,,,,,,"Population, total",St. Martin (French part),MAF,36061.00,36569.00,37264.00,38002.00,38659.00
GDP per capita (current US$),St. Vincent and the Grenadines,VCT,7075,7213,7361,7457,7298,,,,,,,,,,,,,,,,,,,,,,"Population, total",St. Vincent and the Grenadines,VCT,109467.00,109826.00,110210.00,110593.00,110947.00
GDP per capita (current US$),Sudan,SDN,1325,1103,826,753,595,,,,,,,,,,,,,,,,,,,,,,"Population, total",Sudan,SDN,39847433.00,40813398.00,41801532.00,42813237.00,43849269.00
GDP per capita (current US$),Suriname,SUR,5873,6296,6938,7261,6491,,,,,,,,,,,,,,,,,,,,,,"Population, total",Suriname,SUR,564883.00,570501.00,575987.00,581363.00,586634.00
GDP per capita (current US$),eswatini,SWZ,3426,3914,4106,3895,3415,,,,,,,,,,,,,,,,,,,,,,"Population, total",Eswatini,SWZ,1113994.00,1124808.00,1136274.00,1148133.00,1160164.00
GDP per capita (current US$),Sweden,SWE,51965,53792,54589,51687,51926,,,,,,,,,,,,,,,,,,,,,,"Population, total",Sweden,SWE,9923085.00,10057698.00,10175214.00,10278887.00,10353442.00
GDP per capita (current US$),Switzerland,CHE,83073,83352,86430,85300,86602,,,,,,,,,,,,,,,,,,,,,,"Population, total",Switzerland,CHE,8373338.00,8451840.00,8514329.00,8575280.00,8636896.00
GDP per capita (current US$),Syria,SYR,0,0,0,0,0,,,,,,,,,,,,,,,,,,,,,,"Population, total",Syrian Arab Republic,SYR,17465567.00,17095669.00,16945062.00,17070132.00,17500657.00
GDP per capita (current US$),Tajikistan,TJK,807,849,853,891,859,,,,,,,,,,,,,,,,,,,,,,"Population, total",Tajikistan,TJK,8663575.00,8880270.00,9100847.00,9321023.00,9537642.00
GDP per capita (current US$),Tanzania,TZA,967,1005,1043,1086,1076,,,,,,,,,,,,,,,,,,,,,,"Population, total",Tanzania,TZA,53049231.00,54660345.00,56313444.00,58005461.00,59734213.00
GDP per capita (current US$),Thailand,THA,5993,6594,7297,7817,7189,,,,,,,,,,,,,,,,,,,,,,"Population, total",Thailand,THA,68971313.00,69209817.00,69428454.00,69625581.00,69799978.00
GDP per capita (current US$),Timor-Leste,TLS,1354,1286,1230,1561,1381,,,,,,,,,,,,,,,,,,,,,,"Population, total",Timor-Leste,TLS,1219289.00,1243260.00,1267975.00,1293120.00,1318442.00
GDP per capita (current US$),Togo,TGO,803,831,902,893,915,,,,,,,,,,,,,,,,,,,,,,"Population, total",Togo,TGO,7509952.00,7698476.00,7889095.00,8082359.00,8278737.00
GDP per capita (current US$),Tonga,TON,4158,4513,4741,4903,0,,,,,,,,,,,,,,,,,,,,,,"Population, total",Tonga,TON,101143.00,102002.00,103199.00,104497.00,105697.00
GDP per capita (current US$),Trinidad and Tobago,TTO,16251,16174,17038,16637,15384,,,,,,,,,,,,,,,,,,,,,,"Population, total",Trinidad and Tobago,TTO,1377563.00,1384060.00,1389841.00,1394969.00,1399491.00
GDP per capita (current US$),Tunisia,TUN,3698,3481,3439,3352,3320,,,,,,,,,,,,,,,,,,,,,,"Population, total",Tunisia,TUN,11303942.00,11433438.00,11565203.00,11694721.00,11818618.00
GDP per capita (current US$),Turkey,TUR,10895,10590,9453,9127,8538,,,,,,,,,,,,,,,,,,,,,,"Population, total",Turkey,TUR,79827868.00,81116451.00,82340090.00,83429607.00,84339067.00
GDP per capita (current US$),Turkmenistan,TKM,6388,6587,6967,7612,0,,,,,,,,,,,,,,,,,,,,,,"Population, total",Turkmenistan,TKM,5662371.00,5757667.00,5850902.00,5942094.00,6031187.00
GDP per capita (current US$),Turks and Caicos Islands,TCA,28241,27545,29553,31351,23880,,,,,,,,,,,,,,,,,,,,,,"Population, total",Turks and Caicos Islands,TCA,36558.00,37116.00,37667.00,38194.00,38718.00
GDP per capita (current US$),Tuvalu,TUV,3254,3574,3702,4056,4143,,,,,,,,,,,,,,,,,,,,,,"Population, total",Tuvalu,TUV,11232.00,11365.00,11505.00,11655.00,11792.00
GDP per capita (current US$),Uganda,UGA,733,747,770,794,817,,,,,,,,,,,,,,,,,,,,,,"Population, total",Uganda,UGA,39649173.00,41166588.00,42729032.00,44269587.00,45741000.00
GDP per capita (current US$),Ukraine,UKR,2188,2641,3097,3663,3727,,,,,,,,,,,,,,,,,,,,,,"Population, total",Ukraine,UKR,45004673.00,44831135.00,44622518.00,44386203.00,44134693.00
GDP per capita (current US$),United Arab Emirates,ARE,38142,40645,43839,43103,0,,,,,,,,,,,,,,,,,,,,,,"Population, total",United Arab Emirates,ARE,9360975.00,9487206.00,9630966.00,9770526.00,9890400.00
GDP per capita (current US$),United Kingdom,GBR,41048,40305,42993,42354,40285,,,,,,,,,,,,,,,,,,,,,,"Population, total",United Kingdom,GBR,65611593.00,66058859.00,66460344.00,66836327.00,67215293.00
GDP per capita (current US$),United States of America,USA,58021,60110,63064,65280,63544,,,,,,,,,,,,,,,,,,,,,,"Population, total",United States,USA,323071755.00,325122128.00,326838199.00,328329953.00,329484123.00
GDP per capita (current US$),Uruguay,URY,16716,18691,18704,17688,15438,,,,,,,,,,,,,,,,,,,,,,"Population, total",Uruguay,URY,3424139.00,3436645.00,3449290.00,3461731.00,3473727.00
GDP per capita (current US$),Uzbekistan,UZB,2568,1827,1529,1719,1686,,,,,,,,,,,,,,,,,,,,,,"Population, total",Uzbekistan,UZB,31847900.00,32388600.00,32956100.00,33580350.00,34232050.00
GDP per capita (current US$),Vanuatu,VUT,2806,3082,3125,3102,2783,,,,,,,,,,,,,,,,,,,,,,"Population, total",Vanuatu,VUT,278326.00,285499.00,292675.00,299882.00,307150.00
GDP per capita (current US$),Venezuela,VEN,0,0,0,0,0,,,,,,,,,,,,,,,,,,,,,,"Population, total","Venezuela, RB",VEN,29851249.00,29402480.00,28887117.00,28515829.00,28435943.00
GDP per capita (current US$),Vietnam,VNM,2192,2366,2566,2715,2786,,,,,,,,,,,,,,,,,,,,,,"Population, total",Vietnam,VNM,93640435.00,94600643.00,95545959.00,96462108.00,97338583.00
GDP per capita (current US$),Virgin Islands (U.S.),VIR,36023,36288,37233,0,0,,,,,,,,,,,,,,,,,,,,,,"Population, total",Virgin Islands (U.S.),VIR,107516.00,107281.00,107001.00,106669.00,106290.00
GDP per capita (current US$),West Bank and Gaza,PSE,3528,3620,3562,3657,3240,,,,,,,,,,,,,,,,,,,,,,"Population, total",West Bank and Gaza,PSE,4367088.00,4454805.00,4569087.00,4685306.00,4803269.00
GDP per capita (current US$),Yemen,YEM,1139,961,824,0,0,,,,,,,,,,,,,,,,,,,,,,"Population, total","Yemen, Rep.",YEM,27168210.00,27834811.00,28498683.00,29161922.00,29825968.00
GDP per capita (current US$),Zambia,ZMB,1281,1535,1516,1305,1051,,,,,,,,,,,,,,,,,,,,,,"Population, total",Zambia,ZMB,16363449.00,16853608.00,17351714.00,17861034.00,18383956.00
GDP per capita (current US$),Zimbabwe,ZWE,1465,1336,1352,1156,1128,,,,,,,,,,,,,,,,,,,,,,"Population, total",Zimbabwe,ZWE,14030338.00,14236599.00,14438812.00,14645473.00,14862927.00
,,,,,,,,,,,,,,,,,,,,,,,,,,,,,,,,,,,,
,,,,,,,,,,,,,,,,,,,,,,,,,,,,,,,,,,,,
,,,,,,,,,,,,,,,,,,,,,,,,,,,,,,,,,,,,
,,,,,,,,,,,,,,,,,,,,,,,,,,,,,,,,,,,,
,,,,,,,,,,,,,,,,,,,,,,,,,,,,,,,,,,,,
,,,,,,,,,,,,,,,,,,,,,,,,,,,,,,,,,,,,
,,,,,,,,,,,,,,,,,,,,,,,,,,,,,,,,,,,,
,,,,,,,,,,,,,,,,,,,,,,,,,,,,,,,,,,,,
,,,,,,,,,,,,,,,,,,,,,,,,,,,,,,,,,,,,
,,,,,,,,,,,,,,,,,,,,,,,,,,,,,,,,,,,,
,,,,,,,,,,,,,,,,,,,,,,,,,,,,,,,,,,,,
,,,,,,,,,,,,,,,,,,,,,,,,,,,,,,,,,,,,
,,,,,,,,,,,,,,,,,,,,,,,,,,,,,,,,,,,,
,,,,,,,,,,,,,,,,,,,,,,,,,,,,,,,,,,,,
,,,,,,,,,,,,,,,,,,,,,,,,,,,,,,,,,,,,
,,,,,,,,,,,,,,,,,,,,,,,,,,,,,,,,,,,,
,,,,,,,,,,,,,,,,,,,,,,,,,,,,,,,,,,,,
,,,,,,,,,,,,,,,,,,,,,,,,,,,,,,,,,,,,
,,,,,,,,,,,,,,,,,,,,,,,,,,,,,,,,,,,,
,,,,,,,,,,,,,,,,,,,,,,,,,,,,,,,,,,,,
,,,,,,,,,,,,,,,,,,,,,,,,,,,,,,,,,,,,
,,,,,,,,,,,,,,,,,,,,,,,,,,,,,,,,,,,,
,,,,,,,,,,,,,,,,,,,,,,,,,,,,,,,,,,,,
,,,,,,,,,,,,,,,,,,,,,,,,,,,,,,,,,,,,
,,,,,,,,,,,,,,,,,,,,,,,,,,,,,,,,,,,,
,,,,,,,,,,,,,,,,,,,,,,,,,,,,,,,,,,,,
,,,,,,,,,,,,,,,,,,,,,,,,,,,,,,,,,,,,
,,,,,,,,,,,,,,,,,,,,,,,,,,,,,,,,,,,,
,,,,,,,,,,,,,,,,,,,,,,,,,,,,,,,,,,,,
,,,,,,,,,,,,,,,,,,,,,,,,,,,,,,,,,,,,
,,,,,,,,,,,,,,,,,,,,,,,,,,,,,,,,,,,,
,,,,,,,,,,,,,,,,,,,,,,,,,,,,,,,,,,,,
,,,,,,,,,,,,,,,,,,,,,,,,,,,,,,,,,,,,
,,,,,,,,,,,,,,,,,,,,,,,,,,,,,,,,,,,,
,,,,,,,,,,,,,,,,,,,,,,,,,,,,,,,,,,,,
,,,,,,,,,,,,,,,,,,,,,,,,,,,,,,,,,,,,
,,,,,,,,,,,,,,,,,,,,,,,,,,,,,,,,,,,,
,,,,,,,,,,,,,,,,,,,,,,,,,,,,,,,,,,,,
,,,,,,,,,,,,,,,,,,,,,,,,,,,,,,,,,,,,
,,,,,,,,,,,,,,,,,,,,,,,,,,,,,,,,,,,,
,,,,,,,,,,,,,,,,,,,,,,,,,,,,,,,,,,,,
,,,,,,,,,,,,,,,,,,,,,,,,,,,,,,,,,,,,
,,,,,,,,,,,,,,,,,,,,,,,,,,,,,,,,,,,,
,,,,,,,,,,,,,,,,,,,,,,,,,,,,,,,,,,,,
,,,,,,,,,,,,,,,,,,,,,,,,,,,,,,,,,,,,
,,,,,,,,,,,,,,,,,,,,,,,,,,,,,,,,,,,,
,,,,,,,,,,,,,,,,,,,,,,,,,,,,,,,,,,,,
,,,,,,,,,,,,,,,,,,,,,,,,,,,,,,,,,,,,
,,,,,,,,,,,,,,,,,,,,,,,,,,,,,,,,,,,,
,,,,,,,,,,,,,,,,,,,,,,,,,,,,,,,,,,,,
,,,,,,,,,,,,,,,,,,,,,,,,,,,,,,,,,,,,
,,,,,,,,,,,,,,,,,,,,,,,,,,,,,,,,,,,,
,,,,,,,,,,,,,,,,,,,,,,,,,,,,,,,,,,,,
,,,,,,,,,,,,,,,,,,,,,,,,,,,,,,,,,,,,
,,,,,,,,,,,,,,,,,,,,,,,,,,,,,,,,,,,,
,,,,,,,,,,,,,,,,,,,,,,,,,,,,,,,,,,,,
,,,,,,,,,,,,,,,,,,,,,,,,,,,,,,,,,,,,
,,,,,,,,,,,,,,,,,,,,,,,,,,,,,,,,,,,,
,,,,,,,,,,,,,,,,,,,,,,,,,,,,,,,,,,,,
,,,,,,,,,,,,,,,,,,,,,,,,,,,,,,,,,,,,
,,,,,,,,,,,,,,,,,,,,,,,,,,,,,,,,,,,,
,,,,,,,,,,,,,,,,,,,,,,,,,,,,,,,,,,,,
,,,,,,,,,,,,,,,,,,,,,,,,,,,,,,,,,,,,
,,,,,,,,,,,,,,,,,,,,,,,,,,,,,,,,,,,,
,,,,,,,,,,,,,,,,,,,,,,,,,,,,,,,,,,,,
,,,,,,,,,,,,,,,,,,,,,,,,,,,,,,,,,,,,
,,,,,,,,,,,,,,,,,,,,,,,,,,,,,,,,,,,,
,,,,,,,,,,,,,,,,,,,,,,,,,,,,,,,,,,,,
,,,,,,,,,,,,,,,,,,,,,,,,,,,,,,,,,,,,
,,,,,,,,,,,,,,,,,,,,,,,,,,,,,,,,,,,,
,,,,,,,,,,,,,,,,,,,,,,,,,,,,,,,,,,,,
,,,,,,,,,,,,,,,,,,,,,,,,,,,,,,,,,,,,
,,,,,,,,,,,,,,,,,,,,,,,,,,,,,,,,,,,,
,,,,,,,,,,,,,,,,,,,,,,,,,,,,,,,,,,,,
,,,,,,,,,,,,,,,,,,,,,,,,,,,,,,,,,,,,
,,,,,,,,,,,,,,,,,,,,,,,,,,,,,,,,,,,,
,,,,,,,,,,,,,,,,,,,,,,,,,,,,,,,,,,,,
,,,,,,,,,,,,,,,,,,,,,,,,,,,,,,,,,,,,
,,,,,,,,,,,,,,,,,,,,,,,,,,,,,,,,,,,,
,,,,,,,,,,,,,,,,,,,,,,,,,,,,,,,,,,,,
,,,,,,,,,,,,,,,,,,,,,,,,,,,,,,,,,,,,
,,,,,,,,,,,,,,,,,,,,,,,,,,,,,,,,,,,,
,,,,,,,,,,,,,,,,,,,,,,,,,,,,,,,,,,,,
,,,,,,,,,,,,,,,,,,,,,,,,,,,,,,,,,,,,
,,,,,,,,,,,,,,,,,,,,,,,,,,,,,,,,,,,,
,,,,,,,,,,,,,,,,,,,,,,,,,,,,,,,,,,,,
,,,,,,,,,,,,,,,,,,,,,,,,,,,,,,,,,,,,
,,,,,,,,,,,,,,,,,,,,,,,,,,,,,,,,,,,,
,,,,,,,,,,,,,,,,,,,,,,,,,,,,,,,,,,,,
,,,,,,,,,,,,,,,,,,,,,,,,,,,,,,,,,,,,
,,,,,,,,,,,,,,,,,,,,,,,,,,,,,,,,,,,,
,,,,,,,,,,,,,,,,,,,,,,,,,,,,,,,,,,,,
,,,,,,,,,,,,,,,,,,,,,,,,,,,,,,,,,,,,
,,,,,,,,,,,,,,,,,,,,,,,,,,,,,,,,,,,,
,,,,,,,,,,,,,,,,,,,,,,,,,,,,,,,,,,,,
,,,,,,,,,,,,,,,,,,,,,,,,,,,,,,,,,,,,
,,,,,,,,,,,,,,,,,,,,,,,,,,,,,,,,,,,,
,,,,,,,,,,,,,,,,,,,,,,,,,,,,,,,,,,,,
,,,,,,,,,,,,,,,,,,,,,,,,,,,,,,,,,,,,
,,,,,,,,,,,,,,,,,,,,,,,,,,,,,,,,,,,,
,,,,,,,,,,,,,,,,,,,,,,,,,,,,,,,,,,,,
,,,,,,,,,,,,,,,,,,,,,,,,,,,,,,,,,,,,
,,,,,,,,,,,,,,,,,,,,,,,,,,,,,,,,,,,,
,,,,,,,,,,,,,,,,,,,,,,,,,,,,,,,,,,,,
,,,,,,,,,,,,,,,,,,,,,,,,,,,,,,,,,,,,
,,,,,,,,,,,,,,,,,,,,,,,,,,,,,,,,,,,,
,,,,,,,,,,,,,,,,,,,,,,,,,,,,,,,,,,,,
,,,,,,,,,,,,,,,,,,,,,,,,,,,,,,,,,,,,
,,,,,,,,,,,,,,,,,,,,,,,,,,,,,,,,,,,,
,,,,,,,,,,,,,,,,,,,,,,,,,,,,,,,,,,,,
,,,,,,,,,,,,,,,,,,,,,,,,,,,,,,,,,,,,
,,,,,,,,,,,,,,,,,,,,,,,,,,,,,,,,,,,,
,,,,,,,,,,,,,,,,,,,,,,,,,,,,,,,,,,,,
,,,,,,,,,,,,,,,,,,,,,,,,,,,,,,,,,,,,
,,,,,,,,,,,,,,,,,,,,,,,,,,,,,,,,,,,,
,,,,,,,,,,,,,,,,,,,,,,,,,,,,,,,,,,,,
,,,,,,,,,,,,,,,,,,,,,,,,,,,,,,,,,,,,
,,,,,,,,,,,,,,,,,,,,,,,,,,,,,,,,,,,,
,,,,,,,,,,,,,,,,,,,,,,,,,,,,,,,,,,,,
,,,,,,,,,,,,,,,,,,,,,,,,,,,,,,,,,,,,
,,,,,,,,,,,,,,,,,,,,,,,,,,,,,,,,,,,,
,,,,,,,,,,,,,,,,,,,,,,,,,,,,,,,,,,,,
,,,,,,,,,,,,,,,,,,,,,,,,,,,,,,,,,,,,
,,,,,,,,,,,,,,,,,,,,,,,,,,,,,,,,,,,,
,,,,,,,,,,,,,,,,,,,,,,,,,,,,,,,,,,,,
,,,,,,,,,,,,,,,,,,,,,,,,,,,,,,,,,,,,
,,,,,,,,,,,,,,,,,,,,,,,,,,,,,,,,,,,,
,,,,,,,,,,,,,,,,,,,,,,,,,,,,,,,,,,,,
,,,,,,,,,,,,,,,,,,,,,,,,,,,,,,,,,,,,
,,,,,,,,,,,,,,,,,,,,,,,,,,,,,,,,,,,,
,,,,,,,,,,,,,,,,,,,,,,,,,,,,,,,,,,,,
,,,,,,,,,,,,,,,,,,,,,,,,,,,,,,,,,,,,
,,,,,,,,,,,,,,,,,,,,,,,,,,,,,,,,,,,,
,,,,,,,,,,,,,,,,,,,,,,,,,,,,,,,,,,,,
,,,,,,,,,,,,,,,,,,,,,,,,,,,,,,,,,,,,
,,,,,,,,,,,,,,,,,,,,,,,,,,,,,,,,,,,,
,,,,,,,,,,,,,,,,,,,,,,,,,,,,,,,,,,,,
,,,,,,,,,,,,,,,,,,,,,,,,,,,,,,,,,,,,
,,,,,,,,,,,,,,,,,,,,,,,,,,,,,,,,,,,,
,,,,,,,,,,,,,,,,,,,,,,,,,,,,,,,,,,,,
,,,,,,,,,,,,,,,,,,,,,,,,,,,,,,,,,,,,
,,,,,,,,,,,,,,,,,,,,,,,,,,,,,,,,,,,,
,,,,,,,,,,,,,,,,,,,,,,,,,,,,,,,,,,,,
,,,,,,,,,,,,,,,,,,,,,,,,,,,,,,,,,,,,
,,,,,,,,,,,,,,,,,,,,,,,,,,,,,,,,,,,,
,,,,,,,,,,,,,,,,,,,,,,,,,,,,,,,,,,,,
,,,,,,,,,,,,,,,,,,,,,,,,,,,,,,,,,,,,
,,,,,,,,,,,,,,,,,,,,,,,,,,,,,,,,,,,,
,,,,,,,,,,,,,,,,,,,,,,,,,,,,,,,,,,,,
,,,,,,,,,,,,,,,,,,,,,,,,,,,,,,,,,,,,
,,,,,,,,,,,,,,,,,,,,,,,,,,,,,,,,,,,,
,,,,,,,,,,,,,,,,,,,,,,,,,,,,,,,,,,,,
,,,,,,,,,,,,,,,,,,,,,,,,,,,,,,,,,,,,
,,,,,,,,,,,,,,,,,,,,,,,,,,,,,,,,,,,,
,,,,,,,,,,,,,,,,,,,,,,,,,,,,,,,,,,,,
,,,,,,,,,,,,,,,,,,,,,,,,,,,,,,,,,,,,
,,,,,,,,,,,,,,,,,,,,,,,,,,,,,,,,,,,,
,,,,,,,,,,,,,,,,,,,,,,,,,,,,,,,,,,,,
,,,,,,,,,,,,,,,,,,,,,,,,,,,,,,,,,,,,
,,,,,,,,,,,,,,,,,,,,,,,,,,,,,,,,,,,,
,,,,,,,,,,,,,,,,,,,,,,,,,,,,,,,,,,,,
,,,,,,,,,,,,,,,,,,,,,,,,,,,,,,,,,,,,
,,,,,,,,,,,,,,,,,,,,,,,,,,,,,,,,,,,,
,,,,,,,,,,,,,,,,,,,,,,,,,,,,,,,,,,,,
,,,,,,,,,,,,,,,,,,,,,,,,,,,,,,,,,,,,
,,,,,,,,,,,,,,,,,,,,,,,,,,,,,,,,,,,,
,,,,,,,,,,,,,,,,,,,,,,,,,,,,,,,,,,,,
,,,,,,,,,,,,,,,,,,,,,,,,,,,,,,,,,,,,
,,,,,,,,,,,,,,,,,,,,,,,,,,,,,,,,,,,,
,,,,,,,,,,,,,,,,,,,,,,,,,,,,,,,,,,,,
,,,,,,,,,,,,,,,,,,,,,,,,,,,,,,,,,,,,
,,,,,,,,,,,,,,,,,,,,,,,,,,,,,,,,,,,,
,,,,,,,,,,,,,,,,,,,,,,,,,,,,,,,,,,,,
,,,,,,,,,,,,,,,,,,,,,,,,,,,,,,,,,,,,
,,,,,,,,,,,,,,,,,,,,,,,,,,,,,,,,,,,,
,,,,,,,,,,,,,,,,,,,,,,,,,,,,,,,,,,,,
,,,,,,,,,,,,,,,,,,,,,,,,,,,,,,,,,,,,
,,,,,,,,,,,,,,,,,,,,,,,,,,,,,,,,,,,,
,,,,,,,,,,,,,,,,,,,,,,,,,,,,,,,,,,,,
,,,,,,,,,,,,,,,,,,,,,,,,,,,,,,,,,,,,
,,,,,,,,,,,,,,,,,,,,,,,,,,,,,,,,,,,,
,,,,,,,,,,,,,,,,,,,,,,,,,,,,,,,,,,,,
,,,,,,,,,,,,,,,,,,,,,,,,,,,,,,,,,,,,
,,,,,,,,,,,,,,,,,,,,,,,,,,,,,,,,,,,,
,,,,,,,,,,,,,,,,,,,,,,,,,,,,,,,,,,,,
,,,,,,,,,,,,,,,,,,,,,,,,,,,,,,,,,,,,
,,,,,,,,,,,,,,,,,,,,,,,,,,,,,,,,,,,,
,,,,,,,,,,,,,,,,,,,,,,,,,,,,,,,,,,,,
,,,,,,,,,,,,,,,,,,,,,,,,,,,,,,,,,,,,
,,,,,,,,,,,,,,,,,,,,,,,,,,,,,,,,,,,,
,,,,,,,,,,,,,,,,,,,,,,,,,,,,,,,,,,,,
,,,,,,,,,,,,,,,,,,,,,,,,,,,,,,,,,,,,
,,,,,,,,,,,,,,,,,,,,,,,,,,,,,,,,,,,,
,,,,,,,,,,,,,,,,,,,,,,,,,,,,,,,,,,,,
,,,,,,,,,,,,,,,,,,,,,,,,,,,,,,,,,,,,
,,,,,,,,,,,,,,,,,,,,,,,,,,,,,,,,,,,,
,,,,,,,,,,,,,,,,,,,,,,,,,,,,,,,,,,,,
,,,,,,,,,,,,,,,,,,,,,,,,,,,,,,,,,,,,
,,,,,,,,,,,,,,,,,,,,,,,,,,,,,,,,,,,,
,,,,,,,,,,,,,,,,,,,,,,,,,,,,,,,,,,,,
,,,,,,,,,,,,,,,,,,,,,,,,,,,,,,,,,,,,
,,,,,,,,,,,,,,,,,,,,,,,,,,,,,,,,,,,,
,,,,,,,,,,,,,,,,,,,,,,,,,,,,,,,,,,,,
,,,,,,,,,,,,,,,,,,,,,,,,,,,,,,,,,,,,
,,,,,,,,,,,,,,,,,,,,,,,,,,,,,,,,,,,,
,,,,,,,,,,,,,,,,,,,,,,,,,,,,,,,,,,,,
,,,,,,,,,,,,,,,,,,,,,,,,,,,,,,,,,,,,
,,,,,,,,,,,,,,,,,,,,,,,,,,,,,,,,,,,,
,,,,,,,,,,,,,,,,,,,,,,,,,,,,,,,,,,,,
,,,,,,,,,,,,,,,,,,,,,,,,,,,,,,,,,,,,
,,,,,,,,,,,,,,,,,,,,,,,,,,,,,,,,,,,,
,,,,,,,,,,,,,,,,,,,,,,,,,,,,,,,,,,,,
,,,,,,,,,,,,,,,,,,,,,,,,,,,,,,,,,,,,
,,,,,,,,,,,,,,,,,,,,,,,,,,,,,,,,,,,,
,,,,,,,,,,,,,,,,,,,,,,,,,,,,,,,,,,,,
,,,,,,,,,,,,,,,,,,,,,,,,,,,,,,,,,,,,
,,,,,,,,,,,,,,,,,,,,,,,,,,,,,,,,,,,,
,,,,,,,,,,,,,,,,,,,,,,,,,,,,,,,,,,,,
,,,,,,,,,,,,,,,,,,,,,,,,,,,,,,,,,,,,
,,,,,,,,,,,,,,,,,,,,,,,,,,,,,,,,,,,,
,,,,,,,,,,,,,,,,,,,,,,,,,,,,,,,,,,,,
,,,,,,,,,,,,,,,,,,,,,,,,,,,,,,,,,,,,
,,,,,,,,,,,,,,,,,,,,,,,,,,,,,,,,,,,,
,,,,,,,,,,,,,,,,,,,,,,,,,,,,,,,,,,,,
,,,,,,,,,,,,,,,,,,,,,,,,,,,,,,,,,,,,
,,,,,,,,,,,,,,,,,,,,,,,,,,,,,,,,,,,,
,,,,,,,,,,,,,,,,,,,,,,,,,,,,,,,,,,,,
,,,,,,,,,,,,,,,,,,,,,,,,,,,,,,,,,,,,
,,,,,,,,,,,,,,,,,,,,,,,,,,,,,,,,,,,,
,,,,,,,,,,,,,,,,,,,,,,,,,,,,,,,,,,,,
,,,,,,,,,,,,,,,,,,,,,,,,,,,,,,,,,,,,
,,,,,,,,,,,,,,,,,,,,,,,,,,,,,,,,,,,,
,,,,,,,,,,,,,,,,,,,,,,,,,,,,,,,,,,,,
,,,,,,,,,,,,,,,,,,,,,,,,,,,,,,,,,,,,
,,,,,,,,,,,,,,,,,,,,,,,,,,,,,,,,,,,,
,,,,,,,,,,,,,,,,,,,,,,,,,,,,,,,,,,,,
,,,,,,,,,,,,,,,,,,,,,,,,,,,,,,,,,,,,
,,,,,,,,,,,,,,,,,,,,,,,,,,,,,,,,,,,,
,,,,,,,,,,,,,,,,,,,,,,,,,,,,,,,,,,,,
,,,,,,,,,,,,,,,,,,,,,,,,,,,,,,,,,,,,
,,,,,,,,,,,,,,,,,,,,,,,,,,,,,,,,,,,,
,,,,,,,,,,,,,,,,,,,,,,,,,,,,,,,,,,,,
,,,,,,,,,,,,,,,,,,,,,,,,,,,,,,,,,,,,
,,,,,,,,,,,,,,,,,,,,,,,,,,,,,,,,,,,,
,,,,,,,,,,,,,,,,,,,,,,,,,,,,,,,,,,,,
,,,,,,,,,,,,,,,,,,,,,,,,,,,,,,,,,,,,
,,,,,,,,,,,,,,,,,,,,,,,,,,,,,,,,,,,,
,,,,,,,,,,,,,,,,,,,,,,,,,,,,,,,,,,,,
,,,,,,,,,,,,,,,,,,,,,,,,,,,,,,,,,,,,
,,,,,,,,,,,,,,,,,,,,,,,,,,,,,,,,,,,,
,,,,,,,,,,,,,,,,,,,,,,,,,,,,,,,,,,,,
,,,,,,,,,,,,,,,,,,,,,,,,,,,,,,,,,,,,
,,,,,,,,,,,,,,,,,,,,,,,,,,,,,,,,,,,,
,,,,,,,,,,,,,,,,,,,,,,,,,,,,,,,,,,,,
,,,,,,,,,,,,,,,,,,,,,,,,,,,,,,,,,,,,
,,,,,,,,,,,,,,,,,,,,,,,,,,,,,,,,,,,,
,,,,,,,,,,,,,,,,,,,,,,,,,,,,,,,,,,,,
,,,,,,,,,,,,,,,,,,,,,,,,,,,,,,,,,,,,
,,,,,,,,,,,,,,,,,,,,,,,,,,,,,,,,,,,,
,,,,,,,,,,,,,,,,,,,,,,,,,,,,,,,,,,,,
,,,,,,,,,,,,,,,,,,,,,,,,,,,,,,,,,,,,
,,,,,,,,,,,,,,,,,,,,,,,,,,,,,,,,,,,,
,,,,,,,,,,,,,,,,,,,,,,,,,,,,,,,,,,,,
,,,,,,,,,,,,,,,,,,,,,,,,,,,,,,,,,,,,
,,,,,,,,,,,,,,,,,,,,,,,,,,,,,,,,,,,,
,,,,,,,,,,,,,,,,,,,,,,,,,,,,,,,,,,,,
,,,,,,,,,,,,,,,,,,,,,,,,,,,,,,,,,,,,
,,,,,,,,,,,,,,,,,,,,,,,,,,,,,,,,,,,,
,,,,,,,,,,,,,,,,,,,,,,,,,,,,,,,,,,,,
,,,,,,,,,,,,,,,,,,,,,,,,,,,,,,,,,,,,
,,,,,,,,,,,,,,,,,,,,,,,,,,,,,,,,,,,,
,,,,,,,,,,,,,,,,,,,,,,,,,,,,,,,,,,,,
,,,,,,,,,,,,,,,,,,,,,,,,,,,,,,,,,,,,
,,,,,,,,,,,,,,,,,,,,,,,,,,,,,,,,,,,,
,,,,,,,,,,,,,,,,,,,,,,,,,,,,,,,,,,,,
,,,,,,,,,,,,,,,,,,,,,,,,,,,,,,,,,,,,
,,,,,,,,,,,,,,,,,,,,,,,,,,,,,,,,,,,,
,,,,,,,,,,,,,,,,,,,,,,,,,,,,,,,,,,,,
,,,,,,,,,,,,,,,,,,,,,,,,,,,,,,,,,,,,
,,,,,,,,,,,,,,,,,,,,,,,,,,,,,,,,,,,,
,,,,,,,,,,,,,,,,,,,,,,,,,,,,,,,,,,,,
Data from database: World Development Indicators,,,,,,,,,,,,,,,,,,,,,,,,,,,,,,,,,,,,
Last Updated: 09/15/2021,,,,,,,,,,,,,,,,,,,,,,,,,,,,,,,,,,,,